[{"OBJECT_NAME":"KUIPER-00152","OBJECT_ID":"2025-217L","EPOCH":"2026-03-09T02:08:04.930944","MEAN_MOTION":14.79907018,"ECCENTRICITY":5.576e-5,"INCLINATION":51.902,"RA_OF_ASC_NODE":33.2511,"ARG_OF_PERICENTER":92.7348,"MEAN_ANOMALY":267.3678,"EPHEMERIS_TYPE":0,"CLASSIFICATION_TYPE":"U","NORAD_CAT_ID":65772,"ELEMENT_SET_NO":999,"REV_AT_EPOCH":2496,"BSTAR":0.00052321714,"MEAN_MOTION_DOT":3.767e-5,"MEAN_MOTION_DDOT":0},{"OBJECT_NAME":"NOAA 16 DEB","OBJECT_ID":"2000-055QM","EPOCH":"2026-02-13T20:17:25.525248","MEAN_MOTION":14.8112506,"ECCENTRICITY":0.0019072,"INCLINATION":98.7098,"RA_OF_ASC_NODE":187.8427,"ARG_OF_PERICENTER":4.6207,"MEAN_ANOMALY":355.5176,"EPHEMERIS_TYPE":0,"CLASSIFICATION_TYPE":"U","NORAD_CAT_ID":42345,"ELEMENT_SET_NO":999,"REV_AT_EPOCH":51220,"BSTAR":0.00418518,"MEAN_MOTION_DOT":0.00032705,"MEAN_MOTION_DDOT":0}]
